[{"OBJECT_NAME":"STARLINK-4021","OBJECT_ID":"2022-083T","EPOCH":"2026-03-09T12:36:59.387040","MEAN_MOTION":15.08842093,"ECCENTRICITY":0.00013833,"INCLINATION":53.2174,"RA_OF_ASC_NODE":165.0594,"ARG_OF_PERICENTER":89.0535,"MEAN_ANOMALY":271.0615,"EPHEMERIS_TYPE":0,"CLASSIFICATION_TYPE":"U","NORAD_CAT_ID":53149,"ELEMENT_SET_NO":999,"REV_AT_EPOCH":20133,"BSTAR":1.5872904e-5,"MEAN_MOTION_DOT":-3.5e-7,"MEAN_MOTION_DDOT":0},{"OBJECT_NAME":"CZ-4C R\/B","OBJECT_ID":"2022-106B","EPOCH":"2026-03-09T16:53:51.363744","MEAN_MOTION":15.02433181,"ECCENTRICITY":0.01103472,"INCLINATION":98.0511,"RA_OF_ASC_NODE":147.9459,"ARG_OF_PERICENTER":124.4586,"MEAN_ANOMALY":236.7124,"EPHEMERIS_TYPE":0,"CLASSIFICATION_TYPE":"U","NORAD_CAT_ID":53699,"ELEMENT_SET_NO":999,"REV_AT_EPOCH":19198,"BSTAR":0.00037068081,"MEAN_MOTION_DOT":5.536e-5,"MEAN_MOTION_DDOT":0}]
